{
  "type": "FeatureCollection",
  "features": [
    {
      "type": "Feature",
      "properties": {
        "norad_id": 66468,
        "name": "STARLINK-35331",
        "group": "last-30-days",
        "lat": -39.90246317073199,
        "lon": -55.72568893248888,
        "alt_km": 446.5857900541969,
        "timestamp": "2025-12-14T14:39:28.130843+00:00",
        "meta_object_name": "STARLINK-35331",
        "meta_object_id": "2025-262N",
        "meta_epoch": "2025-12-13T22:00:00.999936",
        "meta_mean_motion": 15.40670994,
        "meta_eccentricity": 0.00014962,
        "meta_inclination": 43.0007,
        "meta_ra_of_asc_node": 64.4651,
        "meta_arg_of_pericenter": 285.7878,
        "meta_mean_anomaly": 70.2565,
        "meta_ephemeris_type": 0,
        "meta_classification_type": "U",
        "meta_norad_cat_id": 66468,
        "meta_element_set_no": 999,
        "meta_rev_at_epoch": 582,
        "meta_bstar": 4.7829805e-05,
        "meta_mean_motion_dot": 1.693e-05,
        "meta_mean_motion_ddot": 0,
        "tle_line1": "1 66468U 25262N   25347.91667824  .00001693  00000+0  47830-4 0  9995",
        "tle_line2": "2 66468  43.0007  64.4651 0001496 285.7878  70.2565 15.40670994  5822"
      },
      "geometry": {
        "type": "Point",
        "coordinates": [
          -55.72568893248888,
          -39.90246317073199
        ]
      }
    },
    {
      "type": "Feature",
      "properties": {
        "norad_id": 66469,
        "name": "STARLINK-35451",
        "group": "last-30-days",
        "lat": 19.380202637175977,
        "lon": 82.30023042381104,
        "alt_km": 411.4523713443732,
        "timestamp": "2025-12-14T14:39:28.130857+00:00",
        "meta_object_name": "STARLINK-35451",
        "meta_object_id": "2025-262P",
        "meta_epoch": "2025-12-12T13:03:41.779584",
        "meta_mean_motion": 15.50210236,
        "meta_eccentricity": 0.00011033,
        "meta_inclination": 42.9999,
        "meta_ra_of_asc_node": 72.2116,
        "meta_arg_of_pericenter": 239.0773,
        "meta_mean_anomaly": 120.9979,
        "meta_ephemeris_type": 0,
        "meta_classification_type": "U",
        "meta_norad_cat_id": 66469,
        "meta_element_set_no": 999,
        "meta_rev_at_epoch": 553,
        "meta_bstar": 0.0029076405,
        "meta_mean_motion_dot": 0.00171764,
        "meta_mean_motion_ddot": 0,
        "tle_line1": "1 66469U 25262P   25346.54423356  .00171764  00000+0  29076-2 0  9991",
        "tle_line2": "2 66469  42.9999  72.2116 0001103 239.0773 120.9979 15.50210236  5535"
      },
      "geometry": {
        "type": "Point",
        "coordinates": [
          82.30023042381104,
          19.380202637175977
        ]
      }
    },
    {
      "type": "Feature",
      "properties": {
        "norad_id": 66470,
        "name": "STARLINK-35655",
        "group": "last-30-days",
        "lat": -42.54023380759733,
        "lon": -39.59925536567863,
        "alt_km": 446.4586398446618,
        "timestamp": "2025-12-14T14:39:28.130867+00:00",
        "meta_object_name": "STARLINK-35655",
        "meta_object_id": "2025-262Q",
        "meta_epoch": "2025-12-13T22:00:00.999936",
        "meta_mean_motion": 15.40638249,
        "meta_eccentricity": 0.0001493,
        "meta_inclination": 43.0007,
        "meta_ra_of_asc_node": 64.4348,
        "meta_arg_of_pericenter": 269.2202,
        "meta_mean_anomaly": 99.2822,
        "meta_ephemeris_type": 0,
        "meta_classification_type": "U",
        "meta_norad_cat_id": 66470,
        "meta_element_set_no": 999,
        "meta_rev_at_epoch": 582,
        "meta_bstar": 0.00074227127,
        "meta_mean_motion_dot": 0.00030764,
        "meta_mean_motion_ddot": 0,
        "tle_line1": "1 66470U 25262Q   25347.91667824  .00030764  00000+0  74227-3 0  9998",
        "tle_line2": "2 66470  43.0007  64.4348 0001493 269.2202  99.2822 15.40638249  5827"
      },
      "geometry": {
        "type": "Point",
        "coordinates": [
          -39.59925536567863,
          -42.54023380759733
        ]
      }
    },
    {
      "type": "Feature",
      "properties": {
        "norad_id": 66471,
        "name": "STARLINK-35569",
        "group": "last-30-days",
        "lat": -42.768482148202175,
        "lon": -22.627919521701433,
        "alt_km": 446.6044910659966,
        "timestamp": "2025-12-14T14:39:28.130878+00:00",
        "meta_object_name": "STARLINK-35569",
        "meta_object_id": "2025-262R",
        "meta_epoch": "2025-12-13T22:00:00.999936",
        "meta_mean_motion": 15.40683621,
        "meta_eccentricity": 0.00012401,
        "meta_inclination": 43.0006,
        "meta_ra_of_asc_node": 64.4036,
        "meta_arg_of_pericenter": 266.7938,
        "meta_mean_anomaly": 114.1462,
        "meta_ephemeris_type": 0,
        "meta_classification_type": "U",
        "meta_norad_cat_id": 66471,
        "meta_element_set_no": 999,
        "meta_rev_at_epoch": 582,
        "meta_bstar": 5.3101297e-05,
        "meta_mean_motion_dot": 1.914e-05,
        "meta_mean_motion_ddot": 0,
        "tle_line1": "1 66471U 25262R   25347.91667824  .00001914  00000+0  53101-4 0  9993",
        "tle_line2": "2 66471  43.0006  64.4036 0001240 266.7938 114.1462 15.40683621  5820"
      },
      "geometry": {
        "type": "Point",
        "coordinates": [
          -22.627919521701433,
          -42.768482148202175
        ]
      }
    },
    {
      "type": "Feature",
      "properties": {
        "norad_id": 66472,
        "name": "STARLINK-35567",
        "group": "last-30-days",
        "lat": -36.20461784650668,
        "lon": 8.573412935829058,
        "alt_km": 446.44370519657696,
        "timestamp": "2025-12-14T14:39:28.130891+00:00",
        "meta_object_name": "STARLINK-35567",
        "meta_object_id": "2025-262S",
        "meta_epoch": "2025-12-13T22:00:00.999936",
        "meta_mean_motion": 15.40681573,
        "meta_eccentricity": 9.395e-05,
        "meta_inclination": 43.0006,
        "meta_ra_of_asc_node": 64.3435,
        "meta_arg_of_pericenter": 286.6798,
        "meta_mean_anomaly": 119.1142,
        "meta_ephemeris_type": 0,
        "meta_classification_type": "U",
        "meta_norad_cat_id": 66472,
        "meta_element_set_no": 999,
        "meta_rev_at_epoch": 582,
        "meta_bstar": 0.00052016139,
        "meta_mean_motion_dot": 0.00021472,
        "meta_mean_motion_ddot": 0,
        "tle_line1": "1 66472U 25262S   25347.91667824  .00021472  00000+0  52016-3 0  9998",
        "tle_line2": "2 66472  43.0006  64.3435 0000939 286.6798 119.1142 15.40681573  5826"
      },
      "geometry": {
        "type": "Point",
        "coordinates": [
          8.573412935829058,
          -36.20461784650668
        ]
      }
    },
    {
      "type": "Feature",
      "properties": {
        "norad_id": 66473,
        "name": "STARLINK-35568",
        "group": "last-30-days",
        "lat": 29.363506061667795,
        "lon": 97.21949569072362,
        "alt_km": 408.0427988940264,
        "timestamp": "2025-12-14T14:39:28.130901+00:00",
        "meta_object_name": "STARLINK-35568",
        "meta_object_id": "2025-262T",
        "meta_epoch": "2025-12-11T07:39:08.069760",
        "meta_mean_motion": 15.50526439,
        "meta_eccentricity": 0.00047596,
        "meta_inclination": 42.9998,
        "meta_ra_of_asc_node": 79.3576,
        "meta_arg_of_pericenter": 252.6139,
        "meta_mean_anomaly": 107.4201,
        "meta_ephemeris_type": 0,
        "meta_classification_type": "U",
        "meta_norad_cat_id": 66473,
        "meta_element_set_no": 999,
        "meta_rev_at_epoch": 534,
        "meta_bstar": 0.0038259112,
        "meta_mean_motion_dot": 0.00230458,
        "meta_mean_motion_ddot": 0,
        "tle_line1": "1 66473U 25262T   25345.31884340  .00230458  00000+0  38259-2 0  9993",
        "tle_line2": "2 66473  42.9998  79.3576 0004759 252.6139 107.4201 15.50526439  5346"
      },
      "geometry": {
        "type": "Point",
        "coordinates": [
          97.21949569072362,
          29.363506061667795
        ]
      }
    },
    {
      "type": "Feature",
      "properties": {
        "norad_id": 66474,
        "name": "STARLINK-35620",
        "group": "last-30-days",
        "lat": 30.51693258446645,
        "lon": 99.31085630466023,
        "alt_km": 406.8999037729145,
        "timestamp": "2025-12-14T14:39:28.130912+00:00",
        "meta_object_name": "STARLINK-35620",
        "meta_object_id": "2025-262U",
        "meta_epoch": "2025-12-12T13:00:34.651008",
        "meta_mean_motion": 15.51135131,
        "meta_eccentricity": 0.00014651,
        "meta_inclination": 43.0009,
        "meta_ra_of_asc_node": 72.1929,
        "meta_arg_of_pericenter": 279.0822,
        "meta_mean_anomaly": 80.9873,
        "meta_ephemeris_type": 0,
        "meta_classification_type": "U",
        "meta_norad_cat_id": 66474,
        "meta_element_set_no": 999,
        "meta_rev_at_epoch": 553,
        "meta_bstar": 0.0027986206,
        "meta_mean_motion_dot": 0.00170828,
        "meta_mean_motion_ddot": 0,
        "tle_line1": "1 66474U 25262U   25346.54206772  .00170828  00000+0  27986-2 0  9996",
        "tle_line2": "2 66474  43.0009  72.1929 0001465 279.0822  80.9873 15.51135131  5535"
      },
      "geometry": {
        "type": "Point",
        "coordinates": [
          99.31085630466023,
          30.51693258446645
        ]
      }
    }
  ]
}